STARLINK-1454
1 15671C 20035Q   21326.14026073  .00005760  00000-0  38595-3 0  3265
2 15671  53.0535 268.1130 0001950  69.3694 259.0363 15.06391513    12
